STARLINK-32199          
1 60320U 24133V   26004.89159463 -.00002302  00000+0 -65663-4 0  9999
2 60320  53.1595 233.3179 0001531  87.3229 272.7947 15.30173689 81875
STARLINK-32198          
1 60321U 24133W   26004.90106762  .00000224  00000+0  19708-4 0  9994
2 60321  53.1597 233.3774 0001309  86.8366 273.2785 15.30188956 81967
STARLINK-31745          
1 60329U 24136A   26005.29224731  .00001304  00000+0  56167-4 0  9995
2 60329  53.1627  10.4656 0001431 100.4811 259.6351 15.30197452 81166
STARLINK-32153          
1 60330U 24136B   26005.29119377  .00000340  00000+0  23600-4 0  9991
2 60330  53.1617  10.4578 0001279  89.4224 270.6924 15.30196501 79951
STARLINK-32203          
1 60331U 24136C   26005.25540325  .00001336  00000+0  57225-4 0  9995
2 60331  53.1629   0.2894 0001406  79.7247 280.3913 15.30196073 80099
STARLINK-32171          
1 60332U 24136D   26005.30690864  .00000720  00000+0  36437-4 0  9994
2 60332  53.1618   9.8544 0001119  98.4444 261.6683 15.30197858 79965
STARLINK-32133          
1 60333U 24136E   26005.28485875  .00000383  00000+0  25069-4 0  9990
2 60333  53.1626  10.4146 0001171  89.6560 270.4575 15.30198445 79950
STARLINK-32132          
1 60334U 24136F   26005.27853045  .00001971  00000+0  78680-4 0  9999
2 60334  53.1625  10.3759 0001040  91.7367 268.3753 15.30185907 79956
STARLINK-32168          
1 60335U 24136G   26005.27536511  .00000288  00000+0  21858-4 0  9991
2 60335  53.1630  10.3580 0001160  86.8429 273.2705 15.30196061 79957
STARLINK-32079          
1 60336U 24136H   26005.27220211  .00000748  00000+0  37373-4 0  9999
2 60336  53.1616  10.3385 0001297  62.9377 297.1756 15.30190239 79955
STARLINK-32078          
1 60338U 24136K   26005.26797888 -.00000279  00000+0  27251-5 0  9994
2 60338  53.1619  10.3110 0001349  86.6063 273.5092 15.30192289 79957
STARLINK-32175          
1 60339U 24136L   26005.26587182 -.00000413  00000+0 -18211-5 0  9996
2 60339  53.1638  10.2959 0001699  95.4650 264.6545 15.30188309 79959
STARLINK-32176          
1 60340U 24136M   26005.26270234 -.00002657  00000+0 -77594-4 0  9995
2 60340  53.1608  10.2768 0001672  82.5083 277.6107 15.30207980 81121
STARLINK-32185          
1 60341U 24136N   26005.32060676  .00003907  00000+0  14390-3 0  9991
2 60341  53.1635   9.9239 0001250 114.9697 245.1433 15.30219282 79962
STARLINK-32221          
1 60342U 24136P   26005.32379736  .00000833  00000+0  40267-4 0  9990
2 60342  53.1626   9.9463 0001073  86.9720 273.1404 15.30192855 79965
STARLINK-32083          
1 60343U 24136Q   26005.32484669 -.00002162  00000+0 -60913-4 0  9992
2 60343  53.1633   9.9191 0001293  85.6364 274.4784 15.30187559 79966
