[{"OBJECT_NAME":"STARLINK-32199","OBJECT_ID":"2024-133V","EPOCH":"2026-01-04T21:23:53.776032","MEAN_MOTION":15.30173689,"ECCENTRICITY":0.0001531,"INCLINATION":53.1595,"RA_OF_ASC_NODE":233.3179,"ARG_OF_PERICENTER":87.3229,"MEAN_ANOMALY":272.7947,"EPHEMERIS_TYPE":0,"CLASSIFICATION_TYPE":"U","NORAD_CAT_ID":60320,"ELEMENT_SET_NO":999,"REV_AT_EPOCH":8187,"BSTAR":-6.5663e-5,"MEAN_MOTION_DOT":-2.302e-5,"MEAN_MOTION_DDOT":0},{"OBJECT_NAME":"STARLINK-32198","OBJECT_ID":"2024-133W","EPOCH":"2026-01-04T21:37:32.242368","MEAN_MOTION":15.30188956,"ECCENTRICITY":0.0001309,"INCLINATION":53.1597,"RA_OF_ASC_NODE":233.3774,"ARG_OF_PERICENTER":86.8366,"MEAN_ANOMALY":273.2785,"EPHEMERIS_TYPE":0,"CLASSIFICATION_TYPE":"U","NORAD_CAT_ID":60321,"ELEMENT_SET_NO":999,"REV_AT_EPOCH":8196,"BSTAR":1.9708e-5,"MEAN_MOTION_DOT":2.24e-6,"MEAN_MOTION_DDOT":0},{"OBJECT_NAME":"STARLINK-31745","OBJECT_ID":"2024-136A","EPOCH":"2026-01-05T07:00:50.167584","MEAN_MOTION":15.30197452,"ECCENTRICITY":0.00014313,"INCLINATION":53.1627,"RA_OF_ASC_NODE":10.4656,"ARG_OF_PERICENTER":100.4811,"MEAN_ANOMALY":259.6351,"EPHEMERIS_TYPE":0,"CLASSIFICATION_TYPE":"U","NORAD_CAT_ID":60329,"ELEMENT_SET_NO":999,"REV_AT_EPOCH":8116,"BSTAR":5.6167032e-5,"MEAN_MOTION_DOT":1.304e-5,"MEAN_MOTION_DDOT":0},{"OBJECT_NAME":"STARLINK-32153","OBJECT_ID":"2024-136B","EPOCH":"2026-01-05T06:59:19.141728","MEAN_MOTION":15.30196501,"ECCENTRICITY":0.00012799,"INCLINATION":53.1617,"RA_OF_ASC_NODE":10.4578,"ARG_OF_PERICENTER":89.4224,"MEAN_ANOMALY":270.6924,"EPHEMERIS_TYPE":0,"CLASSIFICATION_TYPE":"U","NORAD_CAT_ID":60330,"ELEMENT_SET_NO":999,"REV_AT_EPOCH":7995,"BSTAR":2.3599817e-5,"MEAN_MOTION_DOT":3.4e-6,"MEAN_MOTION_DDOT":0},{"OBJECT_NAME":"STARLINK-32203","OBJECT_ID":"2024-136C","EPOCH":"2026-01-05T06:07:46.840800","MEAN_MOTION":15.30196073,"ECCENTRICITY":0.00014064,"INCLINATION":53.1629,"RA_OF_ASC_NODE":0.2894,"ARG_OF_PERICENTER":79.7247,"MEAN_ANOMALY":280.3913,"EPHEMERIS_TYPE":0,"CLASSIFICATION_TYPE":"U","NORAD_CAT_ID":60331,"ELEMENT_SET_NO":999,"REV_AT_EPOCH":8009,"BSTAR":5.722544e-5,"MEAN_MOTION_DOT":1.336e-5,"MEAN_MOTION_DDOT":0},{"OBJECT_NAME":"STARLINK-32171","OBJECT_ID":"2024-136D","EPOCH":"2026-01-05T07:21:56.906496","MEAN_MOTION":15.30197858,"ECCENTRICITY":0.00011196,"INCLINATION":53.1618,"RA_OF_ASC_NODE":9.8544,"ARG_OF_PERICENTER":98.4444,"MEAN_ANOMALY":261.6683,"EPHEMERIS_TYPE":0,"CLASSIFICATION_TYPE":"U","NORAD_CAT_ID":60332,"ELEMENT_SET_NO":999,"REV_AT_EPOCH":7996,"BSTAR":3.6436956e-5,"MEAN_MOTION_DOT":7.2e-6,"MEAN_MOTION_DDOT":0},{"OBJECT_NAME":"STARLINK-32133","OBJECT_ID":"2024-136E","EPOCH":"2026-01-05T06:50:11.796000","MEAN_MOTION":15.30198445,"ECCENTRICITY":0.00011717,"INCLINATION":53.1626,"RA_OF_ASC_NODE":10.4146,"ARG_OF_PERICENTER":89.656,"MEAN_ANOMALY":270.4575,"EPHEMERIS_TYPE":0,"CLASSIFICATION_TYPE":"U","NORAD_CAT_ID":60333,"ELEMENT_SET_NO":999,"REV_AT_EPOCH":7995,"BSTAR":2.5069395e-5,"MEAN_MOTION_DOT":3.83e-6,"MEAN_MOTION_DDOT":0},{"OBJECT_NAME":"STARLINK-32132","OBJECT_ID":"2024-136F","EPOCH":"2026-01-05T06:41:05.030880","MEAN_MOTION":15.30185907,"ECCENTRICITY":0.00010402,"INCLINATION":53.1625,"RA_OF_ASC_NODE":10.3759,"ARG_OF_PERICENTER":91.7367,"MEAN_ANOMALY":268.3753,"EPHEMERIS_TYPE":0,"CLASSIFICATION_TYPE":"U","NORAD_CAT_ID":60334,"ELEMENT_SET_NO":999,"REV_AT_EPOCH":7995,"BSTAR":7.8679668e-5,"MEAN_MOTION_DOT":1.971e-5,"MEAN_MOTION_DDOT":0},{"OBJECT_NAME":"STARLINK-32168","OBJECT_ID":"2024-136G","EPOCH":"2026-01-05T06:36:31.545504","MEAN_MOTION":15.30196061,"ECCENTRICITY":0.00011602,"INCLINATION":53.163,"RA_OF_ASC_NODE":10.358,"ARG_OF_PERICENTER":86.8429,"MEAN_ANOMALY":273.2705,"EPHEMERIS_TYPE":0,"CLASSIFICATION_TYPE":"U","NORAD_CAT_ID":60335,"ELEMENT_SET_NO":999,"REV_AT_EPOCH":7995,"BSTAR":2.1858305e-5,"MEAN_MOTION_DOT":2.88e-6,"MEAN_MOTION_DDOT":0},{"OBJECT_NAME":"STARLINK-32079","OBJECT_ID":"2024-136H","EPOCH":"2026-01-05T06:31:58.262304","MEAN_MOTION":15.30190239,"ECCENTRICITY":0.00012977,"INCLINATION":53.1616,"RA_OF_ASC_NODE":10.3385,"ARG_OF_PERICENTER":62.9377,"MEAN_ANOMALY":297.1756,"EPHEMERIS_TYPE":0,"CLASSIFICATION_TYPE":"U","NORAD_CAT_ID":60336,"ELEMENT_SET_NO":999,"REV_AT_EPOCH":7995,"BSTAR":3.7373077e-5,"MEAN_MOTION_DOT":7.48e-6,"MEAN_MOTION_DDOT":0},{"OBJECT_NAME":"STARLINK-32078","OBJECT_ID":"2024-136K","EPOCH":"2026-01-05T06:25:53.375232","MEAN_MOTION":15.30192289,"ECCENTRICITY":0.00013491,"INCLINATION":53.1619,"RA_OF_ASC_NODE":10.311,"ARG_OF_PERICENTER":86.6063,"MEAN_ANOMALY":273.5092,"EPHEMERIS_TYPE":0,"CLASSIFICATION_TYPE":"U","NORAD_CAT_ID":60338,"ELEMENT_SET_NO":999,"REV_AT_EPOCH":7995,"BSTAR":2.725074e-6,"MEAN_MOTION_DOT":-2.79e-6,"MEAN_MOTION_DDOT":0},{"OBJECT_NAME":"STARLINK-32175","OBJECT_ID":"2024-136L","EPOCH":"2026-01-05T06:22:51.325248","MEAN_MOTION":15.30188309,"ECCENTRICITY":0.00016992,"INCLINATION":53.1638,"RA_OF_ASC_NODE":10.2959,"ARG_OF_PERICENTER":95.465,"MEAN_ANOMALY":264.6545,"EPHEMERIS_TYPE":0,"CLASSIFICATION_TYPE":"U","NORAD_CAT_ID":60339,"ELEMENT_SET_NO":999,"REV_AT_EPOCH":7995,"BSTAR":-1.82108e-6,"MEAN_MOTION_DOT":-4.13e-6,"MEAN_MOTION_DDOT":0},{"OBJECT_NAME":"STARLINK-32176","OBJECT_ID":"2024-136M","EPOCH":"2026-01-05T06:18:17.482176","MEAN_MOTION":15.3020798,"ECCENTRICITY":0.0001672,"INCLINATION":53.1608,"RA_OF_ASC_NODE":10.2768,"ARG_OF_PERICENTER":82.5083,"MEAN_ANOMALY":277.6107,"EPHEMERIS_TYPE":0,"CLASSIFICATION_TYPE":"U","NORAD_CAT_ID":60340,"ELEMENT_SET_NO":999,"REV_AT_EPOCH":8112,"BSTAR":-7.759439e-5,"MEAN_MOTION_DOT":-2.657e-5,"MEAN_MOTION_DDOT":0},{"OBJECT_NAME":"STARLINK-32185","OBJECT_ID":"2024-136N","EPOCH":"2026-01-05T07:41:40.424064","MEAN_MOTION":15.30219282,"ECCENTRICITY":0.00012507,"INCLINATION":53.1635,"RA_OF_ASC_NODE":9.9239,"ARG_OF_PERICENTER":114.9697,"MEAN_ANOMALY":245.1433,"EPHEMERIS_TYPE":0,"CLASSIFICATION_TYPE":"U","NORAD_CAT_ID":60341,"ELEMENT_SET_NO":999,"REV_AT_EPOCH":7996,"BSTAR":0.00014389646,"MEAN_MOTION_DOT":3.907e-5,"MEAN_MOTION_DDOT":0},{"OBJECT_NAME":"STARLINK-32221","OBJECT_ID":"2024-136P","EPOCH":"2026-01-05T07:46:16.091904","MEAN_MOTION":15.30192855,"ECCENTRICITY":0.00010736,"INCLINATION":53.1626,"RA_OF_ASC_NODE":9.9463,"ARG_OF_PERICENTER":86.972,"MEAN_ANOMALY":273.1404,"EPHEMERIS_TYPE":0,"CLASSIFICATION_TYPE":"U","NORAD_CAT_ID":60342,"ELEMENT_SET_NO":999,"REV_AT_EPOCH":7996,"BSTAR":4.0266601e-5,"MEAN_MOTION_DOT":8.33e-6,"MEAN_MOTION_DDOT":0},{"OBJECT_NAME":"STARLINK-32083","OBJECT_ID":"2024-136Q","EPOCH":"2026-01-05T07:47:46.754016","MEAN_MOTION":15.30187559,"ECCENTRICITY":0.00012932,"INCLINATION":53.1633,"RA_OF_ASC_NODE":9.9191,"ARG_OF_PERICENTER":85.6364,"MEAN_ANOMALY":274.4784,"EPHEMERIS_TYPE":0,"CLASSIFICATION_TYPE":"U","NORAD_CAT_ID":60343,"ELEMENT_SET_NO":999,"REV_AT_EPOCH":7996,"BSTAR":-6.0913085e-5,"MEAN_MOTION_DOT":-2.162e-5,"MEAN_MOTION_DDOT":0}]
